#dP2020  1 12  0  0  0.00000000      96 __u+U ITR00 FIT  IAC
## 2088      0.00000000   900.00000000 58860 0.0000000000000
+  115   C01C02C03C04C05C06C07C08C09C10C11C12C13C14C16C18C19
+        C20C21C22C23C24C25C26C27C28C29C30C32C33C34C35C36C37
+        E01E02E03E04E05E07E08E09E11E12E13E14E15E18E19E21E24
+        E25E26E27E30E31E33E36G01G02G03G04G05G06G07G08G09G10
+        G11G12G13G14G15G16G17G18G19G20G21G22G23G24G25G26G27
+        G28G29G30G31G32J01J02J07R01R02R03R04R05R07R08R09R11
+        R12R13R14R15R16R17R18R19R20R21R22R23R26  0  0  0  0
++        13 12 13 13 12  8  9  8  8  8  8  7  8  8  8 15  8
++         8  7  8  7  8  8  8  8  8  8  8  8  8  8  8  8  8
++         4  4  4  4  5  4  4  4  4  4  4  4  4  4  4  4  4
++         4  4  4  4  4  4  4  3  3  3  4  3  3  3  3  6  3
++         3  3  3  3  3  3  3  4  3  3  3  3  3  3  3  3  3
++         3  3  3  3  3  8  8  0  6  5  5  5  5  5  5  5  5
++         5  6  5  5  6  5  5  6  6  5  5  5  8  0  0  0  0
%c M  cc GPS ccc cccc cccc cccc cccc ccccc ccccc ccccc ccccc
%c cc cc ccc ccc cccc cccc cccc cccc ccccc ccccc ccccc ccccc
%f  0.0000000  0.000000000  0.00000000000  0.000000000000000
%f  0.0000000  0.000000000  0.00000000000  0.000000000000000
%i    0    0    0    0      0      0      0      0         0
%i    0    0    0    0      0      0      0      0         0
/* INFORMATION & ANALYSIS CENTER (IAC)            RAPID DATA
/* S/V CLOCKS ARE ALIGNED TO GNSS TIME                      
/* G:C1WC2W R:C1PC2P E:C1XC5X C:C2IC6I J:C1CC2S             
/* PCV:IGS14_2082 OL/AL:FES2004  NONE     YN ORB:CoN CLK:CoN
*  2020 01 12  8 15  0.00000000
PC01 -32283.789220  27136.848910      7.737975    371.463179
PC02   4388.404962  41896.597183   -965.690938    616.194626
PC03 -14745.712523  39479.303212   -856.768655    205.900571
PC04 -39644.661333  14433.882991   -186.046767   -430.237721
PC05  21923.135801  35977.718928   -957.561043   -170.033913
PC06 -21466.136246  35216.256309   8030.503430    262.991302
PC07  -7661.924361  32529.324606  26157.678865     98.595828
PC08 -15820.368126  18531.591225 -34380.854901    -81.288362
PC09 -11393.027694  34883.355173  20661.162917    255.441980
PC10   4186.393787  38940.260635  16308.577980   -552.452410
PC11  20029.164538 -18072.957144   7092.906765   -116.220717
PC12  24559.844073  -7053.514203 -11139.729979    308.653363
PC13  -1113.883420  23049.090770 -35179.927233    202.331035
PC14   9929.861136 -20653.377592  15912.285657    417.231234
PC16 -20195.866076  35703.079136   9367.100957   -854.191263
PC18   7301.870839  41518.820232    320.451301     29.559264
PC19  -4153.146649  26325.921576  -8273.205170    295.747389
PC20 -13734.722647  12542.187300 -20800.570687   -546.298191
PC21  15440.445136   9229.311399  21350.545511     27.202317
PC22   7957.681885  25095.543307   9291.671163   -664.824671
PC23 -15611.865585 -18864.547981 -13388.692273   -871.835004
PC24  20779.191438  -3742.825668 -18239.052889   -898.885563
PC25   2866.256838 -16299.761661 -22474.980102   -478.687955
PC26  25894.264560   9567.386535  -3963.427465    530.990612
PC27 -21399.268575  -1200.073681  17852.397294    259.144856
PC28  -5822.612401 -14991.129705  22813.491480    250.109942
PC29 -12329.486261  20464.731046 -14417.553869    172.617900
PC30 -23981.092367  13987.892290   2726.839530    254.888667
PC32 -15511.372943  -9101.628500 -21328.541679   -855.924337
PC33   4104.812791 -26299.383411   8358.674335   -774.545515
PC34  23948.086493 -14159.187579  -2338.229029   -384.364054
PC35   6250.290035  14888.889286 -22749.909603   -758.288354
PC36  -3488.659949  16130.372186  22524.919845   -849.174020
PC37 -25618.210296 -10562.666410   3403.023665   -921.154947
PE01  -7786.061940 -24779.316650 -14202.709779   -771.912426
PE02   7834.541175  24781.577856  14149.224252    105.194069
PE03  -2979.705714  27641.650978  10172.523156   -254.175802
PE04 -11226.574177 -15457.658503 -22612.165775   -443.853221
PE05 -15584.566707  23739.559161  -8358.893904   -414.772887
PE07  19001.534748  -5990.010916  21887.594511   -325.692406
PE08  11313.775833  15164.419344  22762.323465   6235.933227
PE09 -18851.698233   6269.490743 -21949.681945   6191.387835
PE11 -29319.539011   3184.560929   2451.127170    760.028521
PE12 -20158.281426  -9684.441376  19394.828637   6005.455644
PE13  29307.578786  -3188.529541  -2660.524315    397.296861
PE14 -18861.973639   2747.325477  14927.824441   -864.932650
PE15  20405.411052   9383.570690 -19264.968652    881.119720
PE18  21499.769142   4932.839412 -23291.155442   -961.495961
PE19   4564.880527 -28038.017837  -8328.754322     -1.998349
PE21   9312.839714 -14138.312823 -24282.626888   -576.554623
PE24 -21140.089381  -5015.324896  20104.887595   5667.347069
PE25  -9407.658890  14043.315347  24304.461481   -500.934738
PE26  20881.969152 -13962.320933  15665.437331   3655.982810
PE27  21115.018006   4871.722918 -20155.600353    305.397613
PE30  20326.953895  21109.684767  -4108.507824   4231.056889
PE31 -20486.388714 -20949.289080   4222.918038   -471.277521
PE33    491.456260 -16475.682433  24600.094077   -471.011095
PE36 -21037.311879  13889.609286 -15499.749702    612.365538
PG01  15614.105113  13805.185805 -16855.755072   -259.847028
PG02   8340.525591 -14413.020615  21310.413840   -384.355257
PG03  13434.817113  22120.678186   6121.445717    -70.745108
PG04   7490.298202  14176.602060  21177.872774    -33.190568
PG05    -88.595189 -23076.767933  12837.929231     -5.985060
PG06  20577.505772  -7399.428653  15153.344431   -179.957098
PG07  26019.521219   6029.000309   2755.871124   -190.331840
PG08  -1402.571210  20586.420527 -16552.977527    -19.932439
PG09  15437.911404   4493.543317  21086.825761   -130.562477
PG10 -14843.192583   3395.964432 -21703.416695   -206.523881
PG11   9716.121113  13863.831150 -20906.115846   -392.479101
PG12  -9697.620156 -24685.688557   2433.260539    163.215365
PG13  10371.685020 -21531.251113 -11627.843836    -20.502023
PG14 -18341.251138  19034.117758   -832.567747    -39.268994
PG15  -1918.035288 -20541.891555 -16820.339233   -259.176869
PG16  -2598.589268  22427.595992  13416.074321   -112.727801
PG17  20532.176908 -12619.719863 -10665.188987    197.190392
PG18   7025.848196  15447.159951 -20958.374121    112.897751
PG19  20165.894525 -16833.169058  -4253.990165   -213.606409
PG20 -18839.460946  -7049.391331 -17535.717049    527.785616
PG21 -26258.036833  -2974.177785   1284.508353    -56.942469
PG22  10593.513202  24332.785095  -1851.048426   -781.626106
PG23   9809.757304  12812.426207  21402.209990   -143.629600
PG24 -13995.766979 -14322.297030 -17806.478166     -7.465915
PG25 -16371.040801 -16018.772724  13451.171062    -16.180266
PG26  -8315.627091  15874.201043  19511.821320    125.593721
PG27 -11046.718231  22694.712935  -7831.576220   -178.721852
PG28  13935.947605  -4097.305236 -21642.411130    745.720001
PG29 -14435.377933  -5366.712195  21611.801153     -5.443929
PG30  25193.848034  -1765.637393  -8511.235332   -127.387431
PG31 -19132.060174   8535.092556  16562.740307    -16.001870
PG32 -20032.230860  13629.375934 -10658.856470    182.626899
PJ01 -20110.722204  29832.848860 -17422.144507   -325.655241
PJ02 -26056.484661  20595.224247  30796.889084     -0.721719
PJ07      0.000000      0.000000      0.000000 999999.999999
PR01   1139.344863  24197.425541   8007.500220     55.499430
PR02   9482.278745   8261.781267  22215.275365    406.803533
PR03  11155.000718 -10950.936993  20207.229532      8.091313
PR04   6309.416074 -23774.782762   6782.574821     35.103204
PR05  -1930.704666 -23152.403288 -10554.588803     42.963366
PR07 -11073.620443  11440.643434 -19885.422725    -31.893057
PR08  -6368.597947  23753.407908  -6700.370563     13.164231
PR09 -21317.957502 -10979.412518   8619.497464    111.010842
PR11  -1065.828158  12660.778858  22138.108381     13.463451
PR12  13686.995592  17727.679221  12208.226394     96.154664
PR13  21393.805419  12730.166713  -5570.336060    -33.427719
PR14  16192.058919    549.321248 -19694.410648     47.015265
PR15   1831.743988 -12001.619281 -22415.769223    105.670326
PR16 -14326.269862 -17607.437870 -11788.415466     -0.921910
PR17  23805.544476  -8970.923897  -1555.275223    291.694446
PR18  15871.591449 -13599.994745  14682.495184     21.267422
PR19    -55.018189 -10992.619992  23024.792098    -73.612722
PR20 -18328.966426  -1505.567147  17669.181052   -401.290220
PR21 -23751.394332   9313.960010    736.141163    -97.742228
PR22 -13424.822172  13536.732030 -16867.142653     -9.447863
PR23   6790.934306   8455.040987 -23087.545419    279.285163
PR26 -15445.518179  -3480.876142  20025.540236   -411.953585
EOF
